IRIDIUM 57 [-]          
1 25273U 98019B   24014.49934270  .00000620  00000+0  21069-3 0  9993
2 25273  86.3969   2.8896 0002209  87.3303 272.8146 14.35044415350236
IRIDIUM 63 [-]          
1 25286U 98021B   24014.78936669  .00000854  00000+0  29005-3 0  9993
2 25286  86.3994 299.7045 0002230  89.5015 270.6437 14.35566082349572
IRIDIUM 69 [-]          
1 25319U 98026A   24014.33560812  .00000991  00000+0  31037-3 0  9999
2 25319  86.4002 314.7383 0001220   7.9078 352.2140 14.39746847348237
IRIDIUM 71 [-]          
1 25320U 98026B   24014.30067286  .00000964  00000+0  29949-3 0  9994
2 25320  86.3992 309.5536 0003232  44.1254 316.0202 14.40074152348740
IRIDIUM 73 [-]          
1 25344U 98032C   24014.62386833  .00001054  00000+0  26583-3 0  9996
2 25344  86.4410 267.0720 0001687  71.5010 288.6378 14.50241009355228
IRIDIUM 82 [-]          
1 25467U 98051A   24014.44835462  .00016898  00000+0  93717-3 0  9995
2 25467  86.3969 358.7769 0143096  67.3928 294.2372 15.05211092345175
IRIDIUM 2 [-]           
1 25527U 98066A   24014.56173171  .00059030  00000+0  10188-2 0  9998
2 25527  85.5138  41.8432 0004619 151.8991 208.2518 15.50777962383738
